KUIPER-00232            
1 67148U 25301R   26026.31338604  .00047790  00000+0  12822-2 0  9994
2 67148  51.8701 269.7420 0003643 143.5512 216.5724 15.37480250  7220
KUIPER-00241            
1 67149U 25301S   26026.25002315 -.00741446  00000+0 -22939-1 0  9995
2 67149  51.8740 270.1866 0002491 197.3736 105.7485 15.35547462  5025
KUIPER-00245            
1 67150U 25301T   26026.25002315 -.01009838  00000+0 -72435-1 0  9996
2 67150  51.9000 272.6005 0009353 247.1068 239.5269 15.06564879  5367
KUIPER-00246            
1 67151U 25301U   26025.67952408  .00022641  00000+0  62187-3 0  9998
2 67151  51.8730 272.9910 0004217 227.4403 132.6229 15.37133804  7144
KUIPER-00247            
1 67152U 25301V   26025.66748259  .00043636  00000+0  12649-2 0  9999
2 67152  51.8648 273.6187 0012345 258.8380 101.1218 15.35045593  7111
KUIPER-00248            
1 67153U 25301W   26025.71481731  .00044858  00000+0  12797-2 0  9996
2 67153  51.8650 273.2067 0008980 235.1427 124.8715 15.35569283  7298
KUIPER-00249            
1 67154U 25301X   26026.25002315  .00024882  00000+0  69904-3 0  9992
2 67154  51.8638 270.5085 0008733 243.1768 251.0994 15.36346104  5250
KUIPER-00250            
1 67155U 25301Y   26026.14678765  .00037302  00000+0  10214-2 0  9999
2 67155  51.8707 270.8671 0007133 234.3543 125.6780 15.36947453  7220
