<?xml version="1.0" encoding="UTF-8"?>
<ndm xmlns:xsi="http://www.w3.org/2001/XMLSchema-instance" xsi:noNamespaceSchemaLocation="https://sanaregistry.org/r/ndmxml_unqualified/ndmxml-2.0.0-master-2.0.xsd">
<omm id="CCSDS_OMM_VERS" version="2.0">
<header><CREATION_DATE/><ORIGINATOR/></header><body><segment><metadata><OBJECT_NAME>KUIPER-00232</OBJECT_NAME><OBJECT_ID>2025-301R</OBJECT_ID><CENTER_NAME>EARTH</CENTER_NAME><REF_FRAME>TEME</REF_FRAME><TIME_SYSTEM>UTC</TIME_SYSTEM><MEAN_ELEMENT_THEORY>SGP4</MEAN_ELEMENT_THEORY></metadata><data><meanElements><EPOCH>2026-01-26T07:31:16.553856</EPOCH><MEAN_MOTION>15.37480250</MEAN_MOTION><ECCENTRICITY>.00036438</ECCENTRICITY><INCLINATION>51.8701</INCLINATION><RA_OF_ASC_NODE>269.7420</RA_OF_ASC_NODE><ARG_OF_PERICENTER>143.5512</ARG_OF_PERICENTER><MEAN_ANOMALY>216.5724</MEAN_ANOMALY></meanElements><tleParameters><EPHEMERIS_TYPE>0</EPHEMERIS_TYPE><CLASSIFICATION_TYPE>U</CLASSIFICATION_TYPE><NORAD_CAT_ID>67148</NORAD_CAT_ID><ELEMENT_SET_NO>999</ELEMENT_SET_NO><REV_AT_EPOCH>722</REV_AT_EPOCH><BSTAR>.12822223E-2</BSTAR><MEAN_MOTION_DOT>.4779E-3</MEAN_MOTION_DOT><MEAN_MOTION_DDOT>0</MEAN_MOTION_DDOT></tleParameters></data></segment></body></omm>
<omm id="CCSDS_OMM_VERS" version="2.0">
<header><CREATION_DATE/><ORIGINATOR/></header><body><segment><metadata><OBJECT_NAME>KUIPER-00241</OBJECT_NAME><OBJECT_ID>2025-301S</OBJECT_ID><CENTER_NAME>EARTH</CENTER_NAME><REF_FRAME>TEME</REF_FRAME><TIME_SYSTEM>UTC</TIME_SYSTEM><MEAN_ELEMENT_THEORY>SGP4</MEAN_ELEMENT_THEORY></metadata><data><meanElements><EPOCH>2026-01-26T06:00:02.000160</EPOCH><MEAN_MOTION>15.35547462</MEAN_MOTION><ECCENTRICITY>.00024918</ECCENTRICITY><INCLINATION>51.8740</INCLINATION><RA_OF_ASC_NODE>270.1866</RA_OF_ASC_NODE><ARG_OF_PERICENTER>197.3736</ARG_OF_PERICENTER><MEAN_ANOMALY>105.7485</MEAN_ANOMALY></meanElements><tleParameters><EPHEMERIS_TYPE>0</EPHEMERIS_TYPE><CLASSIFICATION_TYPE>U</CLASSIFICATION_TYPE><NORAD_CAT_ID>67149</NORAD_CAT_ID><ELEMENT_SET_NO>999</ELEMENT_SET_NO><REV_AT_EPOCH>502</REV_AT_EPOCH><BSTAR>-.22939372E-1</BSTAR><MEAN_MOTION_DOT>-.741446E-2</MEAN_MOTION_DOT><MEAN_MOTION_DDOT>0</MEAN_MOTION_DDOT></tleParameters></data></segment></body></omm>
<omm id="CCSDS_OMM_VERS" version="2.0">
<header><CREATION_DATE/><ORIGINATOR/></header><body><segment><metadata><OBJECT_NAME>KUIPER-00245</OBJECT_NAME><OBJECT_ID>2025-301T</OBJECT_ID><CENTER_NAME>EARTH</CENTER_NAME><REF_FRAME>TEME</REF_FRAME><TIME_SYSTEM>UTC</TIME_SYSTEM><MEAN_ELEMENT_THEORY>SGP4</MEAN_ELEMENT_THEORY></metadata><data><meanElements><EPOCH>2026-01-26T06:00:02.000160</EPOCH><MEAN_MOTION>15.06564879</MEAN_MOTION><ECCENTRICITY>.00093532</ECCENTRICITY><INCLINATION>51.9000</INCLINATION><RA_OF_ASC_NODE>272.6005</RA_OF_ASC_NODE><ARG_OF_PERICENTER>247.1068</ARG_OF_PERICENTER><MEAN_ANOMALY>239.5269</MEAN_ANOMALY></meanElements><tleParameters><EPHEMERIS_TYPE>0</EPHEMERIS_TYPE><CLASSIFICATION_TYPE>U</CLASSIFICATION_TYPE><NORAD_CAT_ID>67150</NORAD_CAT_ID><ELEMENT_SET_NO>999</ELEMENT_SET_NO><REV_AT_EPOCH>536</REV_AT_EPOCH><BSTAR>-.72435208E-1</BSTAR><MEAN_MOTION_DOT>-.1009838E-1</MEAN_MOTION_DOT><MEAN_MOTION_DDOT>0</MEAN_MOTION_DDOT></tleParameters></data></segment></body></omm>
<omm id="CCSDS_OMM_VERS" version="2.0">
<header><CREATION_DATE/><ORIGINATOR/></header><body><segment><metadata><OBJECT_NAME>KUIPER-00246</OBJECT_NAME><OBJECT_ID>2025-301U</OBJECT_ID><CENTER_NAME>EARTH</CENTER_NAME><REF_FRAME>TEME</REF_FRAME><TIME_SYSTEM>UTC</TIME_SYSTEM><MEAN_ELEMENT_THEORY>SGP4</MEAN_ELEMENT_THEORY></metadata><data><meanElements><EPOCH>2026-01-25T16:18:30.880512</EPOCH><MEAN_MOTION>15.37133804</MEAN_MOTION><ECCENTRICITY>.0004217</ECCENTRICITY><INCLINATION>51.8730</INCLINATION><RA_OF_ASC_NODE>272.9910</RA_OF_ASC_NODE><ARG_OF_PERICENTER>227.4403</ARG_OF_PERICENTER><MEAN_ANOMALY>132.6229</MEAN_ANOMALY></meanElements><tleParameters><EPHEMERIS_TYPE>0</EPHEMERIS_TYPE><CLASSIFICATION_TYPE>U</CLASSIFICATION_TYPE><NORAD_CAT_ID>67151</NORAD_CAT_ID><ELEMENT_SET_NO>999</ELEMENT_SET_NO><REV_AT_EPOCH>714</REV_AT_EPOCH><BSTAR>.62186786E-3</BSTAR><MEAN_MOTION_DOT>.22641E-3</MEAN_MOTION_DOT><MEAN_MOTION_DDOT>0</MEAN_MOTION_DDOT></tleParameters></data></segment></body></omm>
<omm id="CCSDS_OMM_VERS" version="2.0">
<header><CREATION_DATE/><ORIGINATOR/></header><body><segment><metadata><OBJECT_NAME>KUIPER-00247</OBJECT_NAME><OBJECT_ID>2025-301V</OBJECT_ID><CENTER_NAME>EARTH</CENTER_NAME><REF_FRAME>TEME</REF_FRAME><TIME_SYSTEM>UTC</TIME_SYSTEM><MEAN_ELEMENT_THEORY>SGP4</MEAN_ELEMENT_THEORY></metadata><data><meanElements><EPOCH>2026-01-25T16:01:10.495776</EPOCH><MEAN_MOTION>15.35045593</MEAN_MOTION><ECCENTRICITY>.0012345</ECCENTRICITY><INCLINATION>51.8648</INCLINATION><RA_OF_ASC_NODE>273.6187</RA_OF_ASC_NODE><ARG_OF_PERICENTER>258.8380</ARG_OF_PERICENTER><MEAN_ANOMALY>101.1218</MEAN_ANOMALY></meanElements><tleParameters><EPHEMERIS_TYPE>0</EPHEMERIS_TYPE><CLASSIFICATION_TYPE>U</CLASSIFICATION_TYPE><NORAD_CAT_ID>67152</NORAD_CAT_ID><ELEMENT_SET_NO>999</ELEMENT_SET_NO><REV_AT_EPOCH>711</REV_AT_EPOCH><BSTAR>.12649E-2</BSTAR><MEAN_MOTION_DOT>.43636E-3</MEAN_MOTION_DOT><MEAN_MOTION_DDOT>0</MEAN_MOTION_DDOT></tleParameters></data></segment></body></omm>
<omm id="CCSDS_OMM_VERS" version="2.0">
<header><CREATION_DATE/><ORIGINATOR/></header><body><segment><metadata><OBJECT_NAME>KUIPER-00248</OBJECT_NAME><OBJECT_ID>2025-301W</OBJECT_ID><CENTER_NAME>EARTH</CENTER_NAME><REF_FRAME>TEME</REF_FRAME><TIME_SYSTEM>UTC</TIME_SYSTEM><MEAN_ELEMENT_THEORY>SGP4</MEAN_ELEMENT_THEORY></metadata><data><meanElements><EPOCH>2026-01-25T17:09:20.215584</EPOCH><MEAN_MOTION>15.35569283</MEAN_MOTION><ECCENTRICITY>.00089805</ECCENTRICITY><INCLINATION>51.8650</INCLINATION><RA_OF_ASC_NODE>273.2067</RA_OF_ASC_NODE><ARG_OF_PERICENTER>235.1427</ARG_OF_PERICENTER><MEAN_ANOMALY>124.8715</MEAN_ANOMALY></meanElements><tleParameters><EPHEMERIS_TYPE>0</EPHEMERIS_TYPE><CLASSIFICATION_TYPE>U</CLASSIFICATION_TYPE><NORAD_CAT_ID>67153</NORAD_CAT_ID><ELEMENT_SET_NO>999</ELEMENT_SET_NO><REV_AT_EPOCH>729</REV_AT_EPOCH><BSTAR>.12796502E-2</BSTAR><MEAN_MOTION_DOT>.44858E-3</MEAN_MOTION_DOT><MEAN_MOTION_DDOT>0</MEAN_MOTION_DDOT></tleParameters></data></segment></body></omm>
<omm id="CCSDS_OMM_VERS" version="2.0">
<header><CREATION_DATE/><ORIGINATOR/></header><body><segment><metadata><OBJECT_NAME>KUIPER-00249</OBJECT_NAME><OBJECT_ID>2025-301X</OBJECT_ID><CENTER_NAME>EARTH</CENTER_NAME><REF_FRAME>TEME</REF_FRAME><TIME_SYSTEM>UTC</TIME_SYSTEM><MEAN_ELEMENT_THEORY>SGP4</MEAN_ELEMENT_THEORY></metadata><data><meanElements><EPOCH>2026-01-26T06:00:02.000160</EPOCH><MEAN_MOTION>15.36346104</MEAN_MOTION><ECCENTRICITY>.00087334</ECCENTRICITY><INCLINATION>51.8638</INCLINATION><RA_OF_ASC_NODE>270.5085</RA_OF_ASC_NODE><ARG_OF_PERICENTER>243.1768</ARG_OF_PERICENTER><MEAN_ANOMALY>251.0994</MEAN_ANOMALY></meanElements><tleParameters><EPHEMERIS_TYPE>0</EPHEMERIS_TYPE><CLASSIFICATION_TYPE>U</CLASSIFICATION_TYPE><NORAD_CAT_ID>67154</NORAD_CAT_ID><ELEMENT_SET_NO>999</ELEMENT_SET_NO><REV_AT_EPOCH>525</REV_AT_EPOCH><BSTAR>.69903915E-3</BSTAR><MEAN_MOTION_DOT>.24882E-3</MEAN_MOTION_DOT><MEAN_MOTION_DDOT>0</MEAN_MOTION_DDOT></tleParameters></data></segment></body></omm>
<omm id="CCSDS_OMM_VERS" version="2.0">
<header><CREATION_DATE/><ORIGINATOR/></header><body><segment><metadata><OBJECT_NAME>KUIPER-00250</OBJECT_NAME><OBJECT_ID>2025-301Y</OBJECT_ID><CENTER_NAME>EARTH</CENTER_NAME><REF_FRAME>TEME</REF_FRAME><TIME_SYSTEM>UTC</TIME_SYSTEM><MEAN_ELEMENT_THEORY>SGP4</MEAN_ELEMENT_THEORY></metadata><data><meanElements><EPOCH>2026-01-26T03:31:22.452960</EPOCH><MEAN_MOTION>15.36947453</MEAN_MOTION><ECCENTRICITY>.00071335</ECCENTRICITY><INCLINATION>51.8707</INCLINATION><RA_OF_ASC_NODE>270.8671</RA_OF_ASC_NODE><ARG_OF_PERICENTER>234.3543</ARG_OF_PERICENTER><MEAN_ANOMALY>125.6780</MEAN_ANOMALY></meanElements><tleParameters><EPHEMERIS_TYPE>0</EPHEMERIS_TYPE><CLASSIFICATION_TYPE>U</CLASSIFICATION_TYPE><NORAD_CAT_ID>67155</NORAD_CAT_ID><ELEMENT_SET_NO>999</ELEMENT_SET_NO><REV_AT_EPOCH>722</REV_AT_EPOCH><BSTAR>.10213517E-2</BSTAR><MEAN_MOTION_DOT>.37302E-3</MEAN_MOTION_DOT><MEAN_MOTION_DDOT>0</MEAN_MOTION_DDOT></tleParameters></data></segment></body></omm>

</ndm>
